{"type": "FeatureCollection", "features": [ {"type": "Feature", "properties": {"norad_id": 32289, "name": "YAOGAN-3", "group": "resource", "lat": -12.900257220240743, "lon": 4.797584736288571, "alt_km": 603.1669562305569, "timestamp": "2025-12-02T06:27:52.677649+00:00", "meta": {"OBJECT_NAME": "YAOGAN-3", "OBJECT_ID": "2007-055A", "EPOCH": "2025-12-01T20:51:03.931200", "MEAN_MOTION": 14.89771208, "ECCENTRICITY": 0.0001532, "INCLINATION": 97.8381, "RA_OF_ASC_NODE": 2.5926, "ARG_OF_PERICENTER": 76.996, "MEAN_ANOMALY": 283.1428, "EPHEMERIS_TYPE": 0, "CLASSIFICATION_TYPE": "U", "NORAD_CAT_ID": 32289, "ELEMENT_SET_NO": 999, "REV_AT_EPOCH": 97647, "BSTAR": 0.00026042, "MEAN_MOTION_DOT": 2.441e-05, "MEAN_MOTION_DDOT": 0}, "tle": {"line1": "1 32289U 07055A   25335.86879550  .00002441  00000+0  26042-3 0  9994", "line2": "2 32289  97.8381   2.5926 0001532  76.9960 283.1428 14.89771208976472"}}, "geometry": {"type": "Point", "coordinates": [4.797584736288571, -12.900257220240743]}}, {"type": "Feature", "properties": {"norad_id": 32376, "name": "COSMO-SKYMED 2", "group": "resource", "lat": -14.55228732943138, "lon": -24.31028456183319, "alt_km": 627.5489072040955, "timestamp": "2025-12-02T06:27:52.677660+00:00", "meta": {"OBJECT_NAME": "COSMO-SKYMED 2", "OBJECT_ID": "2007-059A", "EPOCH": "2025-12-01T19:52:05.554848", "MEAN_MOTION": 14.82171664, "ECCENTRICITY": 0.000147, "INCLINATION": 97.8807, "RA_OF_ASC_NODE": 157.3156, "ARG_OF_PERICENTER": 85.1487, "MEAN_ANOMALY": 274.9894, "EPHEMERIS_TYPE": 0, "CLASSIFICATION_TYPE": "U", "NORAD_CAT_ID": 32376, "ELEMENT_SET_NO": 999, "REV_AT_EPOCH": 97276, "BSTAR": 9.0755e-05, "MEAN_MOTION_DOT": 6.71e-06, "MEAN_MOTION_DDOT": 0}, "tle": {"line1": "1 32376U 07059A   25335.82784207  .00000671  00000+0  90755-4 0  9991", "line2": "2 32376  97.8807 157.3156 0001470  85.1487 274.9894 14.82171664972769"}}, "geometry": {"type": "Point", "coordinates": [-24.31028456183319, -14.55228732943138]}}, {"type": "Feature", "properties": {"norad_id": 32382, "name": "RADARSAT-2", "group": "resource", "lat": -52.547707227062034, "lon": -7.621285750341476, "alt_km": 799.3440700326428, "timestamp": "2025-12-02T06:27:52.677670+00:00", "meta": {"OBJECT_NAME": "RADARSAT-2", "OBJECT_ID": "2007-061A", "EPOCH": "2025-12-01T20:38:17.382624", "MEAN_MOTION": 14.29982856, "ECCENTRICITY": 0.0001081, "INCLINATION": 98.58, "RA_OF_ASC_NODE": 340.6081, "ARG_OF_PERICENTER": 90.3883, "MEAN_ANOMALY": 269.7423, "EPHEMERIS_TYPE": 0, "CLASSIFICATION_TYPE": "U", "NORAD_CAT_ID": 32382, "ELEMENT_SET_NO": 999, "REV_AT_EPOCH": 93775, "BSTAR": 5.4977e-05, "MEAN_MOTION_DOT": 9.8e-07, "MEAN_MOTION_DDOT": 0}, "tle": {"line1": "1 32382U 07061A   25335.85992341  .00000098  00000+0  54977-4 0  9993", "line2": "2 32382  98.5800 340.6081 0001081  90.3883 269.7423 14.29982856937751"}}, "geometry": {"type": "Point", "coordinates": [-7.621285750341476, -52.547707227062034]}}, {"type": "Feature", "properties": {"norad_id": 32783, "name": "CARTOSAT-2A", "group": "resource", "lat": 80.05519540264106, "lon": -102.20574962927742, "alt_km": 620.8422798564161, "timestamp": "2025-12-02T06:27:52.677680+00:00", "meta": {"OBJECT_NAME": "CARTOSAT-2A", "OBJECT_ID": "2008-021A", "EPOCH": "2025-12-01T20:17:21.962112", "MEAN_MOTION": 14.78902354, "ECCENTRICITY": 0.0012588, "INCLINATION": 97.7946, "RA_OF_ASC_NODE": 26.0086, "ARG_OF_PERICENTER": 38.5745, "MEAN_ANOMALY": 321.6364, "EPHEMERIS_TYPE": 0, "CLASSIFICATION_TYPE": "U", "NORAD_CAT_ID": 32783, "ELEMENT_SET_NO": 999, "REV_AT_EPOCH": 94963, "BSTAR": 0.00014329, "MEAN_MOTION_DOT": 1.007e-05, "MEAN_MOTION_DDOT": 0}, "tle": {"line1": "1 32783U 08021A   25335.84539308  .00001007  00000+0  14329-3 0  9991", "line2": "2 32783  97.7946  26.0086 0012588  38.5745 321.6364 14.78902354949634"}}, "geometry": {"type": "Point", "coordinates": [-102.20574962927742, 80.05519540264106]}}, {"type": "Feature", "properties": {"norad_id": 33320, "name": "HUANJING 1A (HJ-1A)", "group": "resource", "lat": 25.217774310225312, "lon": 148.63671134442026, "alt_km": 617.4866656141376, "timestamp": "2025-12-02T06:27:52.677691+00:00", "meta": {"OBJECT_NAME": "HUANJING 1A (HJ-1A)", "OBJECT_ID": "2008-041A", "EPOCH": "2025-12-01T21:40:40.367136", "MEAN_MOTION": 14.83337268, "ECCENTRICITY": 0.0020686, "INCLINATION": 97.6533, "RA_OF_ASC_NODE": 324.6552, "ARG_OF_PERICENTER": 67.8721, "MEAN_ANOMALY": 292.4687, "EPHEMERIS_TYPE": 0, "CLASSIFICATION_TYPE": "U", "NORAD_CAT_ID": 33320, "ELEMENT_SET_NO": 999, "REV_AT_EPOCH": 92915, "BSTAR": 0.00020736, "MEAN_MOTION_DOT": 1.654e-05, "MEAN_MOTION_DDOT": 0}, "tle": {"line1": "1 33320U 08041A   25335.90324499  .00001654  00000+0  20736-3 0  9998", "line2": "2 33320  97.6533 324.6552 0020686  67.8721 292.4687 14.83337268929155"}}, "geometry": {"type": "Point", "coordinates": [148.63671134442026, 25.217774310225312]}}, {"type": "Feature", "properties": {"norad_id": 33321, "name": "HUANJING 1B (HJ-1B)", "group": "resource", "lat": 35.82923153599117, "lon": -36.83092008311812, "alt_km": 610.0465711465858, "timestamp": "2025-12-02T06:27:52.677702+00:00", "meta": {"OBJECT_NAME": "HUANJING 1B (HJ-1B)", "OBJECT_ID": "2008-041B", "EPOCH": "2025-12-01T20:35:03.789600", "MEAN_MOTION": 14.82774654, "ECCENTRICITY": 0.0038115, "INCLINATION": 97.6395, "RA_OF_ASC_NODE": 328.3368, "ARG_OF_PERICENTER": 110.1621, "MEAN_ANOMALY": 250.37, "EPHEMERIS_TYPE": 0, "CLASSIFICATION_TYPE": "U", "NORAD_CAT_ID": 33321, "ELEMENT_SET_NO": 999, "REV_AT_EPOCH": 92916, "BSTAR": 0.00016761, "MEAN_MOTION_DOT": 1.32e-05, "MEAN_MOTION_DDOT": 0}, "tle": {"line1": "1 33321U 08041B   25335.85768275  .00001320  00000+0  16761-3 0  9990", "line2": "2 33321  97.6395 328.3368 0038115 110.1621 250.3700 14.82774654929168"}}, "geometry": {"type": "Point", "coordinates": [-36.83092008311812, 35.82923153599117]}}, {"type": "Feature", "properties": {"norad_id": 33331, "name": "GEOEYE 1", "group": "resource", "lat": -19.952094844638175, "lon": 50.65370224836943, "alt_km": 680.8858088758489, "timestamp": "2025-12-02T06:27:52.677712+00:00", "meta": {"OBJECT_NAME": "GEOEYE 1", "OBJECT_ID": "2008-042A", "EPOCH": "2025-12-01T19:04:49.206144", "MEAN_MOTION": 14.64787211, "ECCENTRICITY": 0.0003056, "INCLINATION": 98.1265, "RA_OF_ASC_NODE": 47.2119, "ARG_OF_PERICENTER": 323.7761, "MEAN_ANOMALY": 36.3235, "EPHEMERIS_TYPE": 0, "CLASSIFICATION_TYPE": "U", "NORAD_CAT_ID": 33331, "ELEMENT_SET_NO": 999, "REV_AT_EPOCH": 92125, "BSTAR": 0.00013653, "MEAN_MOTION_DOT": 6.8e-06, "MEAN_MOTION_DDOT": 0}, "tle": {"line1": "1 33331U 08042A   25335.79501396  .00000680  00000+0  13653-3 0  9999", "line2": "2 33331  98.1265  47.2119 0003056 323.7761  36.3235 14.64787211921255"}}, "geometry": {"type": "Point", "coordinates": [50.65370224836943, -19.952094844638175]}}, {"type": "Feature", "properties": {"norad_id": 33396, "name": "THEOS", "group": "resource", "lat": 76.19612951179728, "lon": -3.2908918565831873, "alt_km": 817.0769808051655, "timestamp": "2025-12-02T06:27:52.677722+00:00", "meta": {"OBJECT_NAME": "THEOS", "OBJECT_ID": "2008-049A", "EPOCH": "2025-12-01T19:56:50.621280", "MEAN_MOTION": 14.20092499, "ECCENTRICITY": 0.0001089, "INCLINATION": 98.5883, "RA_OF_ASC_NODE": 34.2418, "ARG_OF_PERICENTER": 100.4517, "MEAN_ANOMALY": 259.6783, "EPHEMERIS_TYPE": 0, "CLASSIFICATION_TYPE": "U", "NORAD_CAT_ID": 33396, "ELEMENT_SET_NO": 999, "REV_AT_EPOCH": 88995, "BSTAR": 5.5461e-05, "MEAN_MOTION_DOT": 7.6e-07, "MEAN_MOTION_DDOT": 0}, "tle": {"line1": "1 33396U 08049A   25335.83114145  .00000076  00000+0  55461-4 0  9997", "line2": "2 33396  98.5883  34.2418 0001089 100.4517 259.6783 14.20092499889954"}}, "geometry": {"type": "Point", "coordinates": [-3.2908918565831873, 76.19612951179728]}}, {"type": "Feature", "properties": {"norad_id": 33412, "name": "COSMO-SKYMED 3", "group": "resource", "lat": -20.76086040267588, "lon": 3.4882520990291894, "alt_km": 545.7518829109267, "timestamp": "2025-12-02T06:27:52.677733+00:00", "meta": {"OBJECT_NAME": "COSMO-SKYMED 3", "OBJECT_ID": "2008-054A", "EPOCH": "2025-12-01T20:00:06.114240", "MEAN_MOTION": 15.05190749, "ECCENTRICITY": 0.0015245, "INCLINATION": 97.8478, "RA_OF_ASC_NODE": 186.0423, "ARG_OF_PERICENTER": 210.1619, "MEAN_ANOMALY": 149.873, "EPHEMERIS_TYPE": 0, "CLASSIFICATION_TYPE": "U", "NORAD_CAT_ID": 33412, "ELEMENT_SET_NO": 999, "REV_AT_EPOCH": 92723, "BSTAR": 0.00032321, "MEAN_MOTION_DOT": 4.556e-05, "MEAN_MOTION_DDOT": 0}, "tle": {"line1": "1 33412U 08054A   25335.83340410  .00004556  00000+0  32321-3 0  9994", "line2": "2 33412  97.8478 186.0423 0015245 210.1619 149.8730 15.05190749927235"}}, "geometry": {"type": "Point", "coordinates": [3.4882520990291894, -20.76086040267588]}}, {"type": "Feature", "properties": {"norad_id": 33446, "name": "YAOGAN-4", "group": "resource", "lat": -46.141736802262365, "lon": -85.20160732819333, "alt_km": 620.6136309051744, "timestamp": "2025-12-02T06:27:52.677743+00:00", "meta": {"OBJECT_NAME": "YAOGAN-4", "OBJECT_ID": "2008-061A", "EPOCH": "2025-12-01T17:42:59.550336", "MEAN_MOTION": 14.8262448, "ECCENTRICITY": 0.0014543, "INCLINATION": 97.9166, "RA_OF_ASC_NODE": 265.9464, "ARG_OF_PERICENTER": 359.9883, "MEAN_ANOMALY": 0.1328, "EPHEMERIS_TYPE": 0, "CLASSIFICATION_TYPE": "U", "NORAD_CAT_ID": 33446, "ELEMENT_SET_NO": 999, "REV_AT_EPOCH": 91640, "BSTAR": 0.00022043, "MEAN_MOTION_DOT": 1.725e-05, "MEAN_MOTION_DDOT": 0}, "tle": {"line1": "1 33446U 08061A   25335.73818924  .00001725  00000+0  22043-3 0  9993", "line2": "2 33446  97.9166 265.9464 0014543 359.9883   0.1328 14.82624480916401"}}, "geometry": {"type": "Point", "coordinates": [-85.20160732819333, -46.141736802262365]}}]}